[
  {
    "OBJECT_NAME": "IRIDIUM 139",
    "OBJECT_ID": "2017-061J",
    "EPOCH": "2023-03-22T18:04:42.616128",
    "MEAN_MOTION": 14.34217779,
    "ECCENTRICITY": 0.0001997,
    "INCLINATION": 86.4026,
    "RA_OF_ASC_NODE": 159.4717,
    "ARG_OF_PERICENTER": 96.6355,
    "MEAN_ANOMALY": 263.5069,
    "EPHEMERIS_TYPE": 0,
    "CLASSIFICATION_TYPE": "U",
    "NORAD_CAT_ID": 42963,
    "ELEMENT_SET_NO": 999,
    "REV_AT_EPOCH": 28536,
    "BSTAR": 2.5346e-5,
    "MEAN_MOTION_DOT": 9.1e-7,
    "MEAN_MOTION_DDOT": 0
  },
  {
    "OBJECT_NAME": "IRIDIUM 125",
    "OBJECT_ID": "2017-061K",
    "EPOCH": "2023-03-23T07:10:11.307936",
    "MEAN_MOTION": 14.3421714,
    "ECCENTRICITY": 0.0001939,
    "INCLINATION": 86.4027,
    "RA_OF_ASC_NODE": 159.2836,
    "ARG_OF_PERICENTER": 92.5333,
    "MEAN_ANOMALY": 267.6085,
    "EPHEMERIS_TYPE": 0,
    "CLASSIFICATION_TYPE": "U",
    "NORAD_CAT_ID": 42964,
    "ELEMENT_SET_NO": 999,
    "REV_AT_EPOCH": 28545,
    "BSTAR": 0.00016942,
    "MEAN_MOTION_DOT": 4.94e-6,
    "MEAN_MOTION_DDOT": 0
  },
  {
    "OBJECT_NAME": "IRIDIUM 135",
    "OBJECT_ID": "2017-083A",
    "EPOCH": "2023-03-23T11:34:19.087968",
    "MEAN_MOTION": 14.34220494,
    "ECCENTRICITY": 0.0002433,
    "INCLINATION": 86.391,
    "RA_OF_ASC_NODE": 95.9169,
    "ARG_OF_PERICENTER": 94.8196,
    "MEAN_ANOMALY": 265.3278,
    "EPHEMERIS_TYPE": 0,
    "CLASSIFICATION_TYPE": "U",
    "NORAD_CAT_ID": 43070,
    "ELEMENT_SET_NO": 999,
    "REV_AT_EPOCH": 27477,
    "BSTAR": 7.5241e-5,
    "MEAN_MOTION_DOT": 2.31e-6,
    "MEAN_MOTION_DDOT": 0
  },
  {
    "OBJECT_NAME": "IRIDIUM 138",
    "OBJECT_ID": "2017-083B",
    "EPOCH": "2023-03-22T17:45:45.083232",
    "MEAN_MOTION": 14.34217147,
    "ECCENTRICITY": 0.0002128,
    "INCLINATION": 86.3898,
    "RA_OF_ASC_NODE": 96.0011,
    "ARG_OF_PERICENTER": 87.0518,
    "MEAN_ANOMALY": 273.0921,
    "EPHEMERIS_TYPE": 0,
    "CLASSIFICATION_TYPE": "U",
    "NORAD_CAT_ID": 43071,
    "ELEMENT_SET_NO": 999,
    "REV_AT_EPOCH": 27465,
    "BSTAR": 7.8266e-5,
    "MEAN_MOTION_DOT": 2.39e-6,
    "MEAN_MOTION_DDOT": 0
  },
  {
    "OBJECT_NAME": "IRIDIUM 116",
    "OBJECT_ID": "2017-083C",
    "EPOCH": "2023-03-23T03:02:53.112768",
    "MEAN_MOTION": 14.34217698,
    "ECCENTRICITY": 0.0002443,
    "INCLINATION": 86.391,
    "RA_OF_ASC_NODE": 96.0656,
    "ARG_OF_PERICENTER": 89.0359,
    "MEAN_ANOMALY": 271.1117,
    "EPHEMERIS_TYPE": 0,
    "CLASSIFICATION_TYPE": "U",
    "NORAD_CAT_ID": 43072,
    "ELEMENT_SET_NO": 999,
    "REV_AT_EPOCH": 27474,
    "BSTAR": 7.556e-5,
    "MEAN_MOTION_DOT": 2.31e-6,
    "MEAN_MOTION_DDOT": 0
  },
  {
    "OBJECT_NAME": "IRIDIUM 130",
    "OBJECT_ID": "2017-083D",
    "EPOCH": "2023-03-23T12:19:59.059200",
    "MEAN_MOTION": 14.34218837,
    "ECCENTRICITY": 0.0002203,
    "INCLINATION": 86.3918,
    "RA_OF_ASC_NODE": 96.0639,
    "ARG_OF_PERICENTER": 84.7089,
    "MEAN_ANOMALY": 275.4359,
    "EPHEMERIS_TYPE": 0,
    "CLASSIFICATION_TYPE": "U",
    "NORAD_CAT_ID": 43073,
    "ELEMENT_SET_NO": 999,
    "REV_AT_EPOCH": 27474,
    "BSTAR": 0.00024233,
    "MEAN_MOTION_DOT": 6.98e-6,
    "MEAN_MOTION_DDOT": 0
  },
  {
    "OBJECT_NAME": "IRIDIUM 151",
    "OBJECT_ID": "2017-083E",
    "EPOCH": "2023-03-22T18:58:48.405792",
    "MEAN_MOTION": 14.34216353,
    "ECCENTRICITY": 0.0002442,
    "INCLINATION": 86.3909,
    "RA_OF_ASC_NODE": 96.237,
    "ARG_OF_PERICENTER": 86.9696,
    "MEAN_ANOMALY": 273.1779,
    "EPHEMERIS_TYPE": 0,
    "CLASSIFICATION_TYPE": "U",
    "NORAD_CAT_ID": 43074,
    "ELEMENT_SET_NO": 999,
    "REV_AT_EPOCH": 27466,
    "BSTAR": 7.643e-5,
    "MEAN_MOTION_DOT": 2.34e-6,
    "MEAN_MOTION_DDOT": 0
  },
  {
    "OBJECT_NAME": "IRIDIUM 134",
    "OBJECT_ID": "2017-083F",
    "EPOCH": "2023-03-23T02:35:28.333248",
    "MEAN_MOTION": 14.34219736,
    "ECCENTRICITY": 0.0002133,
    "INCLINATION": 86.3912,
    "RA_OF_ASC_NODE": 96.096,
    "ARG_OF_PERICENTER": 94.9584,
    "MEAN_ANOMALY": 265.1855,
    "EPHEMERIS_TYPE": 0,
    "CLASSIFICATION_TYPE": "U",
    "NORAD_CAT_ID": 43075,
    "ELEMENT_SET_NO": 999,
    "REV_AT_EPOCH": 27467,
    "BSTAR": 7.8546e-5,
    "MEAN_MOTION_DOT": 2.4e-6,
    "MEAN_MOTION_DDOT": 0
  },
  {
    "OBJECT_NAME": "IRIDIUM 137",
    "OBJECT_ID": "2017-083G",
    "EPOCH": "2023-03-22T13:29:58.996032",
    "MEAN_MOTION": 14.34219725,
    "ECCENTRICITY": 0.0002441,
    "INCLINATION": 86.3912,
    "RA_OF_ASC_NODE": 96.3943,
    "ARG_OF_PERICENTER": 89.3303,
    "MEAN_ANOMALY": 270.8173,
    "EPHEMERIS_TYPE": 0,
    "CLASSIFICATION_TYPE": "U",
    "NORAD_CAT_ID": 43076,
    "ELEMENT_SET_NO": 999,
    "REV_AT_EPOCH": 27466,
    "BSTAR": 7.3781e-5,
    "MEAN_MOTION_DOT": 2.26e-6,
    "MEAN_MOTION_DDOT": 0
  },
  {
    "OBJECT_NAME": "IRIDIUM 141",
    "OBJECT_ID": "2017-083H",
    "EPOCH": "2023-03-22T23:23:38.666976",
    "MEAN_MOTION": 14.34217129,
    "ECCENTRICITY": 0.0002061,
    "INCLINATION": 86.3908,
    "RA_OF_ASC_NODE": 96.1184,
    "ARG_OF_PERICENTER": 86.5777,
    "MEAN_ANOMALY": 273.5655,
    "EPHEMERIS_TYPE": 0,
    "CLASSIFICATION_TYPE": "U",
    "NORAD_CAT_ID": 43077,
    "ELEMENT_SET_NO": 999,
    "REV_AT_EPOCH": 27472,
    "BSTAR": -3.1082e-5,
    "MEAN_MOTION_DOT": -6.7e-7,
    "MEAN_MOTION_DDOT": 0
  },
  {
    "OBJECT_NAME": "IRIDIUM 153",
    "OBJECT_ID": "2017-083J",
    "EPOCH": "2023-03-23T11:38:30.896448",
    "MEAN_MOTION": 14.34220643,
    "ECCENTRICITY": 0.0002059,
    "INCLINATION": 86.3941,
    "RA_OF_ASC_NODE": 64.3168,
    "ARG_OF_PERICENTER": 81.5204,
    "MEAN_ANOMALY": 278.6225,
    "EPHEMERIS_TYPE": 0,
    "CLASSIFICATION_TYPE": "U",
    "NORAD_CAT_ID": 43078,
    "ELEMENT_SET_NO": 999,
    "REV_AT_EPOCH": 27590,
    "BSTAR": 0.00026378,
    "MEAN_MOTION_DOT": 7.59e-6,
    "MEAN_MOTION_DDOT": 0
  },
  {
    "OBJECT_NAME": "IRIDIUM 131",
    "OBJECT_ID": "2017-083K",
    "EPOCH": "2023-03-22T18:03:58.875264",
    "MEAN_MOTION": 14.34217922,
    "ECCENTRICITY": 0.0002155,
    "INCLINATION": 86.3915,
    "RA_OF_ASC_NODE": 96.3186,
    "ARG_OF_PERICENTER": 87.908,
    "MEAN_ANOMALY": 272.2363,
    "EPHEMERIS_TYPE": 0,
    "CLASSIFICATION_TYPE": "U",
    "NORAD_CAT_ID": 43079,
    "ELEMENT_SET_NO": 999,
    "REV_AT_EPOCH": 27462,
    "BSTAR": 7.8158e-5,
    "MEAN_MOTION_DOT": 2.39e-6,
    "MEAN_MOTION_DDOT": 0
  },
  {
    "OBJECT_NAME": "IRIDIUM 144",
    "OBJECT_ID": "2018-030A",
    "EPOCH": "2023-03-22T20:43:26.944320",
    "MEAN_MOTION": 14.34219704,
    "ECCENTRICITY": 0.0002132,
    "INCLINATION": 86.3938,
    "RA_OF_ASC_NODE": 64.5375,
    "ARG_OF_PERICENTER": 94.1152,
    "MEAN_ANOMALY": 266.0287,
    "EPHEMERIS_TYPE": 0,
    "CLASSIFICATION_TYPE": "U",
    "NORAD_CAT_ID": 43249,
    "ELEMENT_SET_NO": 999,
    "REV_AT_EPOCH": 26067,
    "BSTAR": 8.439e-5,
    "MEAN_MOTION_DOT": 2.56e-6,
    "MEAN_MOTION_DDOT": 0
  },
  {
    "OBJECT_NAME": "IRIDIUM 149",
    "OBJECT_ID": "2018-030B",
    "EPOCH": "2023-03-23T10:16:19.042752",
    "MEAN_MOTION": 14.34219295,
    "ECCENTRICITY": 0.0002173,
    "INCLINATION": 86.3937,
    "RA_OF_ASC_NODE": 64.281,
    "ARG_OF_PERICENTER": 94.9062,
    "MEAN_ANOMALY": 265.2382,
    "EPHEMERIS_TYPE": 0,
    "CLASSIFICATION_TYPE": "U",
    "NORAD_CAT_ID": 43250,
    "ELEMENT_SET_NO": 999,
    "REV_AT_EPOCH": 26077,
    "BSTAR": 9.6059e-5,
    "MEAN_MOTION_DOT": 2.89e-6,
    "MEAN_MOTION_DDOT": 0
  }
]