IRIDIUM 139             
1 42963U 17061J   23081.75327102  .00000091  00000+0  25346-4 0  9993
2 42963  86.4026 159.4717 0001997  96.6355 263.5069 14.34217779285366
IRIDIUM 125             
1 42964U 17061K   23082.29874199  .00000494  00000+0  16942-3 0  9995
2 42964  86.4027 159.2836 0001939  92.5333 267.6085 14.34217140285450
IRIDIUM 135             
1 43070U 17083A   23082.48216537  .00000231  00000+0  75241-4 0  9992
2 43070  86.3910  95.9169 0002433  94.8196 265.3278 14.34220494274774
IRIDIUM 138             
1 43071U 17083B   23081.74010513  .00000239  00000+0  78266-4 0  9995
2 43071  86.3898  96.0011 0002128  87.0518 273.0921 14.34217147274650
IRIDIUM 116             
1 43072U 17083C   23082.12700362  .00000231  00000+0  75560-4 0  9993
2 43072  86.3910  96.0656 0002443  89.0359 271.1117 14.34217698274743
IRIDIUM 130             
1 43073U 17083D   23082.51387800  .00000698  00000+0  24233-3 0  9992
2 43073  86.3918  96.0639 0002203  84.7089 275.4359 14.34218837274740
IRIDIUM 151             
1 43074U 17083E   23081.79083803  .00000234  00000+0  76430-4 0  9991
2 43074  86.3909  96.2370 0002442  86.9696 273.1779 14.34216353274661
IRIDIUM 134             
1 43075U 17083F   23082.10796682  .00000240  00000+0  78546-4 0  9991
2 43075  86.3912  96.0960 0002133  94.9584 265.1855 14.34219736274676
IRIDIUM 137             
1 43076U 17083G   23081.56248838  .00000226  00000+0  73781-4 0  9996
2 43076  86.3912  96.3943 0002441  89.3303 270.8173 14.34219725274663
IRIDIUM 141             
1 43077U 17083H   23081.97475309 -.00000067  00000+0 -31082-4 0  9990
2 43077  86.3908  96.1184 0002061  86.5777 273.5655 14.34217129274724
IRIDIUM 153             
1 43078U 17083J   23082.48507982  .00000759  00000+0  26378-3 0  9998
2 43078  86.3941  64.3168 0002059  81.5204 278.6225 14.34220643275903
IRIDIUM 131             
1 43079U 17083K   23081.75276476  .00000239  00000+0  78158-4 0  9996
2 43079  86.3915  96.3186 0002155  87.9080 272.2363 14.34217922274626
IRIDIUM 144             
1 43249U 18030A   23081.86350630  .00000256  00000+0  84390-4 0  9999
2 43249  86.3938  64.5375 0002132  94.1152 266.0287 14.34219704260678
IRIDIUM 149             
1 43250U 18030B   23082.42799818  .00000289  00000+0  96059-4 0  9990
2 43250  86.3937  64.2810 0002173  94.9062 265.2382 14.34219295260776
